OBJECT_NAME,OBJECT_ID,EPOCH,MEAN_MOTION,ECCENTRICITY,INCLINATION,RA_OF_ASC_NODE,ARG_OF_PERICENTER,MEAN_ANOMALY,EPHEMERIS_TYPE,CLASSIFICATION_TYPE,NORAD_CAT_ID,ELEMENT_SET_NO,REV_AT_EPOCH,BSTAR,MEAN_MOTION_DOT,MEAN_MOTION_DDOT
STARLINK-3751,2022-041AE,2026-06-14T21:17:19.228704,15.08833947,.00013273,53.1613,22.6997,92.9938,267.1205,0,U,52289,999,22917,.15541791E-4,-.41E-6,0
STARLINK-3772,2022-041AF,2026-06-15T07:49:18.029568,15.08839446,.00012897,53.1597,20.7300,112.4211,247.6917,0,U,52290,999,22924,-.21887546E-4,-.636E-5,0
STARLINK-3753,2022-041AH,2026-06-15T07:42:37.832544,15.08834230,.00012615,53.1596,20.7486,90.1824,269.9312,0,U,52292,999,22924,.89232586E-4,.1132E-4,0
STARLINK-3771,2022-041AJ,2026-06-15T07:59:54.184992,15.08834002,.000148,53.1589,20.7100,71.0884,289.0268,0,U,52293,999,22924,-.25086145E-3,-.4278E-4,0
STARLINK-3777,2022-041AK,2026-06-15T07:37:19.979040,15.08835381,.00013702,53.1605,20.7665,92.3779,267.7370,0,U,52294,999,22924,.75200629E-4,.909E-5,0
STARLINK-3765,2022-041AL,2026-06-15T07:53:13.553376,15.08836328,.00013848,53.1604,20.7166,86.5973,273.5177,0,U,52295,999,22924,.34557665E-4,.262E-5,0
STARLINK-3766,2022-041AM,2026-06-15T07:21:26.387424,15.08829548,.00013339,53.1588,20.8176,86.9380,273.1765,0,U,52296,999,22924,.43837463E-4,.41E-5,0
STARLINK-3758,2022-041AN,2026-06-15T07:47:55.678272,15.08839211,.00014662,53.1598,20.7342,83.8422,276.2736,0,U,52297,999,22924,.4780658E-5,-.212E-5,0
STARLINK-3760,2022-041AP,2026-06-15T07:58:27.034176,15.08847226,.00013675,53.1611,20.3123,100.7160,259.3985,0,U,52298,999,22925,-.79773549E-4,-.1558E-4,0
STARLINK-3769,2022-041AR,2026-06-14T21:33:13.362912,15.08834773,.0001296,53.1601,22.6493,89.8774,270.2366,0,U,52300,999,23040,.10781E-4,-.116E-5,0
STARLINK-3768,2022-041AS,2026-06-15T07:32:01.099104,15.08840153,.00017331,53.1593,20.7833,79.9760,280.1427,0,U,52301,999,22924,.94304274E-4,.1213E-4,0
STARLINK-3564,2022-041AT,2026-06-14T21:18:39.476160,15.08809191,.0001453,53.1607,12.6987,96.3972,263.7185,0,U,52302,999,22931,.31609E-3,.4742E-4,0
STARLINK-3742,2022-041AU,2026-06-15T07:10:50.168928,15.08831904,.00012527,53.1596,20.8480,87.5730,272.5405,0,U,52303,999,23046,.60258883E-4,.671E-5,0
STARLINK-3744,2022-041AV,2026-06-15T06:45:40.029120,15.08830806,.00012229,53.1590,10.9284,92.4679,267.6452,0,U,52304,999,22937,.49113586E-4,.494E-5,0
STARLINK-3724,2022-041AW,2026-06-15T07:16:10.389792,15.08829592,.00008333,53.1572,20.9380,96.0692,264.0394,0,U,52305,999,22924,.81931648E-4,.1016E-4,0
STARLINK-3747,2022-041AX,2026-06-14T21:08:03.757920,15.08827721,.00011521,53.1587,12.7275,68.5548,291.5566,0,U,52306,999,23053,-.10358163E-3,-.1936E-4,0
STARLINK-3755,2022-041AY,2026-06-15T07:00:14.639040,15.08825792,.00013252,53.1595,20.8820,90.1343,269.9800,0,U,52307,999,22924,-.339133E-5,-.342E-5,0
STARLINK-3756,2022-041BA,2026-06-14T21:02:45.397248,15.08828274,.00012801,53.1596,12.7463,84.0155,276.0982,0,U,52309,999,23053,.28719514E-4,.169E-5,0
STARLINK-3688,2022-041BB,2026-06-14T20:57:28.491552,15.08839162,.00012725,53.1605,12.8298,93.0968,267.0169,0,U,52310,999,23053,.92805761E-4,.1189E-4,0
STARLINK-3750,2022-041BC,2026-06-14T19:16:47.680896,15.08825019,.0001218,53.1599,13.0798,81.7488,278.3641,0,U,52311,999,23052,.67976836E-4,.794E-5,0
STARLINK-3752,2022-041BD,2026-06-15T07:01:34.748256,15.08828732,.00015215,53.1596,10.8285,88.9201,271.1965,0,U,52312,999,23060,.27830915E-4,.155E-5,0
STARLINK-3749,2022-041BE,2026-06-15T07:06:51.932160,15.08827982,.00012994,53.1596,10.8629,78.2598,281.8539,0,U,52313,999,23060,.52957179E-4,.555E-5,0
SUPERVIEW NEO-1 01,2022-043A,2026-06-15T15:02:14.604288,15.16505358,.00003713,97.3409,239.4564,349.2915,10.8311,0,U,52320,999,22932,.21420441E-3,.4109E-4,0
SUPERVIEW NEO-1 02,2022-043C,2026-06-15T14:13:18.130944,15.16458857,.00016817,97.3405,239.4382,30.7845,329.3487,0,U,52322,999,22933,.19385667E-3,.3707E-4,0
STARLINK-3889,2022-045A,2026-06-15T05:15:36.450432,15.08831993,.0001387,53.1603,131.2124,97.1612,262.9537,0,U,52331,999,23036,.87514E-4,.1105E-4,0
STARLINK-3831,2022-045B,2026-06-15T03:57:28.363104,15.08834042,.00014428,53.1604,131.4652,87.6045,272.5111,0,U,52332,999,23035,.34969859E-4,.268E-5,0
STARLINK-3847,2022-045C,2026-06-15T08:36:57.045312,15.08832034,.00013922,53.1604,130.5829,86.2568,273.8582,0,U,52333,999,23037,.10981406E-4,-.113E-5,0
STARLINK-3880,2022-045D,2026-06-15T03:34:53.766624,15.08832490,.00014178,53.1605,131.5263,89.9211,270.1943,0,U,52334,999,23034,.32990534E-4,.237E-5,0
STARLINK-3814,2022-045E,2026-06-15T03:29:36.011616,15.08829218,.00015024,53.1605,131.5428,86.7467,273.3696,0,U,52335,999,23035,.34568905E-4,.262E-5,0
STARLINK-3823,2022-045F,2026-06-15T16:00:00.999936,15.14329468,.00022445,53.1613,128.9265,63.8359,61.3624,0,U,52336,999,581,.25376935E-2,.47049E-3,0
