STARLINK-3751           
1 52289U 22041AE  26165.88702811 -.00000041  00000+0  15542-4 0  9996
2 52289  53.1613  22.6997 0001327  92.9938 267.1205 15.08833947229177
STARLINK-3772           
1 52290U 22041AF  26166.32590312 -.00000636  00000+0 -21888-4 0  9990
2 52290  53.1597  20.7300 0001289 112.4211 247.6917 15.08839446229247
STARLINK-3753           
1 52292U 22041AH  26166.32127121  .00001132  00000+0  89233-4 0  9994
2 52292  53.1596  20.7486 0001261  90.1824 269.9312 15.08834230229247
STARLINK-3771           
1 52293U 22041AJ  26166.33326603 -.00004278  00000+0 -25086-3 0  9993
2 52293  53.1589  20.7100 0001480  71.0884 289.0268 15.08834002229240
STARLINK-3777           
1 52294U 22041AK  26166.31759235  .00000909  00000+0  75201-4 0  9993
2 52294  53.1605  20.7665 0001370  92.3779 267.7370 15.08835381229241
STARLINK-3765           
1 52295U 22041AL  26166.32862909  .00000262  00000+0  34558-4 0  9990
2 52295  53.1604  20.7166 0001384  86.5973 273.5177 15.08836328229245
STARLINK-3766           
1 52296U 22041AM  26166.30655541  .00000410  00000+0  43837-4 0  9996
2 52296  53.1588  20.8176 0001333  86.9380 273.1765 15.08829548229244
STARLINK-3758           
1 52297U 22041AN  26166.32494998 -.00000212  00000+0  47807-5 0  9999
2 52297  53.1598  20.7342 0001466  83.8422 276.2736 15.08839211229240
STARLINK-3760           
1 52298U 22041AP  26166.33225734 -.00001558  00000+0 -79774-4 0  9993
2 52298  53.1611  20.3123 0001367 100.7160 259.3985 15.08847226229252
STARLINK-3769           
1 52300U 22041AR  26165.89807133 -.00000116  00000+0  10781-4 0  9997
2 52300  53.1601  22.6493 0001296  89.8774 270.2366 15.08834773230406
STARLINK-3768           
1 52301U 22041AS  26166.31390161  .00001213  00000+0  94304-4 0  9995
2 52301  53.1593  20.7833 0001733  79.9760 280.1427 15.08840153229242
STARLINK-3564           
1 52302U 22041AT  26165.88795690  .00004742  00000+0  31609-3 0  9991
2 52302  53.1607  12.6987 0001453  96.3972 263.7185 15.08809191229319
STARLINK-3742           
1 52303U 22041AU  26166.29919177  .00000671  00000+0  60259-4 0  9997
2 52303  53.1596  20.8480 0001252  87.5730 272.5405 15.08831904230465
STARLINK-3744           
1 52304U 22041AV  26166.28171330  .00000494  00000+0  49114-4 0  9998
2 52304  53.1590  10.9284 0001222  92.4679 267.6452 15.08830806229371
STARLINK-3724           
1 52305U 22041AW  26166.30289803  .00001016  00000+0  81932-4 0  9992
2 52305  53.1572  20.9380 0000833  96.0692 264.0394 15.08829592229244
STARLINK-3747           
1 52306U 22041AX  26165.88059905 -.00001936  00000+0 -10358-3 0  9999
2 52306  53.1587  12.7275 0001152  68.5548 291.5566 15.08827721230534
STARLINK-3755           
1 52307U 22041AY  26166.29183610 -.00000342  00000+0 -33913-5 0  9991
2 52307  53.1595  20.8820 0001325  90.1343 269.9800 15.08825792229248
STARLINK-3756           
1 52309U 22041BA  26165.87691432  .00000169  00000+0  28720-4 0  9996
2 52309  53.1596  12.7463 0001280  84.0155 276.0982 15.08828274230539
STARLINK-3688           
1 52310U 22041BB  26165.87324643  .00001189  00000+0  92806-4 0  9994
2 52310  53.1605  12.8298 0001272  93.0968 267.0169 15.08839162230537
STARLINK-3750           
1 52311U 22041BC  26165.80332964  .00000794  00000+0  67977-4 0  9995
2 52311  53.1599  13.0798 0001218  81.7488 278.3641 15.08825019230524
STARLINK-3752           
1 52312U 22041BD  26166.29276329  .00000155  00000+0  27831-4 0  9998
2 52312  53.1596  10.8285 0001521  88.9201 271.1965 15.08828732230601
STARLINK-3749           
1 52313U 22041BE  26166.29643440  .00000555  00000+0  52957-4 0  9992
2 52313  53.1596  10.8629 0001299  78.2598 281.8539 15.08827982230608
SUPERVIEW NEO-1 01      
1 52320U 22043A   26166.62655792  .00004109  00000+0  21420-3 0  9991
2 52320  97.3409 239.4564 0000371 349.2915  10.8311 15.16505358229324
SUPERVIEW NEO-1 02      
1 52322U 22043C   26166.59257096  .00003707  00000+0  19386-3 0  9995
2 52322  97.3405 239.4382 0001681  30.7845 329.3487 15.16458857229333
STARLINK-3889           
1 52331U 22045A   26166.21917188  .00001105  00000+0  87514-4 0  9990
2 52331  53.1603 131.2124 0001387  97.1612 262.9537 15.08831993230368
STARLINK-3831           
1 52332U 22045B   26166.16491161  .00000268  00000+0  34970-4 0  9990
2 52332  53.1604 131.4652 0001442  87.6045 272.5111 15.08834042230356
STARLINK-3847           
1 52333U 22045C   26166.35899358 -.00000113  00000+0  10981-4 0  9998
2 52333  53.1604 130.5829 0001392  86.2568 273.8582 15.08832034230379
STARLINK-3880           
1 52334U 22045D   26166.14923341  .00000237  00000+0  32991-4 0  9997
2 52334  53.1605 131.5263 0001417  89.9211 270.1943 15.08832490230341
STARLINK-3814           
1 52335U 22045E   26166.14555569  .00000262  00000+0  34569-4 0  9992
2 52335  53.1605 131.5428 0001502  86.7467 273.3696 15.08829218230353
STARLINK-3823           
1 52336U 22045F   26166.66667824  .00047049  00000+0  25377-2 0  9997
2 52336  53.1613 128.9265 0002244  63.8359  61.3624 15.14329468  5818
